$$SOE
2461281.500000000, A.D. 2026-Aug-29 00:00:00.0000, -5.427458566449569E+09, -1.569089917093585E+09, -7.111060911465032E+08,
2461288.500000000, A.D. 2026-Sep-05 00:00:00.0000, -5.426744927514550E+09, -1.572025656294941E+09, -7.107055761237416E+08,
2461295.500000000, A.D. 2026-Sep-12 00:00:00.0000, -5.426029831510810E+09, -1.574961030801968E+09, -7.103048742115657E+08,
2461302.500000000, A.D. 2026-Sep-19 00:00:00.0000, -5.425313280240500E+09, -1.577896040840246E+09, -7.099039853693554E+08,
2461309.500000000, A.D. 2026-Sep-26 00:00:00.0000, -5.424595275127770E+09, -1.580830687217752E+09, -7.095029096046181E+08,
2461316.500000000, A.D. 2026-Oct-03 00:00:00.0000, -5.423875817148521E+09, -1.583764971089491E+09, -7.091016469633087E+08,
2461323.500000000, A.D. 2026-Oct-10 00:00:00.0000, -5.423154906846748E+09, -1.586698893814823E+09, -7.087001975207090E+08,
2461330.500000000, A.D. 2026-Oct-17 00:00:00.0000, -5.422432544385826E+09, -1.589632456888332E+09, -7.082985613759701E+08,
2461337.500000000, A.D. 2026-Oct-24 00:00:00.0000, -5.421708729610356E+09, -1.592565661966775E+09, -7.078967386543025E+08,
2461344.500000000, A.D. 2026-Oct-31 00:00:00.0000, -5.420983462019792E+09, -1.595498511058769E+09, -7.074947295312064E+08,
2461351.500000000, A.D. 2026-Nov-07 00:00:00.0000, -5.420256740314793E+09, -1.598431006803098E+09, -7.070925343036131E+08,
2461358.500000000, A.D. 2026-Nov-14 00:00:00.0000, -5.419528561315414E+09, -1.601363151948244E+09, -7.066901534536440E+08,
2461365.500000000, A.D. 2026-Nov-21 00:00:00.0000, -5.418798920062925E+09, -1.604294947351245E+09, -7.062875874828613E+08,
2461372.500000000, A.D. 2026-Nov-28 00:00:00.0000, -5.418067812103271E+09, -1.607226391503959E+09, -7.058848366710286E+08,
2461379.500000000, A.D. 2026-Dec-05 00:00:00.0000, -5.417335234332728E+09, -1.610157482243051E+09, -7.054819011447136E+08,
2461386.500000000, A.D. 2026-Dec-12 00:00:00.0000, -5.416601184240767E+09, -1.613088217532727E+09, -7.050787810163302E+08,
2461393.500000000, A.D. 2026-Dec-19 00:00:00.0000, -5.415865659437421E+09, -1.616018595313788E+09, -7.046754764197398E+08,
2461400.500000000, A.D. 2026-Dec-26 00:00:00.0000, -5.415128657607575E+09, -1.618948613287080E+09, -7.042719875000658E+08,
2461407.500000000, A.D. 2027-Jan-02 00:00:00.0000, -5.414390176616590E+09, -1.621878268822366E+09, -7.038683143984574E+08,
2461414.500000000, A.D. 2027-Jan-09 00:00:00.0000, -5.413650214650964E+09, -1.624807558972639E+09, -7.034644572407482E+08,
2461421.500000000, A.D. 2027-Jan-16 00:00:00.0000, -5.412908770359704E+09, -1.627736480585263E+09, -7.030604161324594E+08,
2461428.500000000, A.D. 2027-Jan-23 00:00:00.0000, -5.412165842951859E+09, -1.630665030549775E+09, -7.026561911675839E+08,
2461435.500000000, A.D. 2027-Jan-30 00:00:00.0000, -5.411421432064057E+09, -1.633593206230325E+09, -7.022517824723058E+08,
2461442.500000000, A.D. 2027-Feb-06 00:00:00.0000, -5.410675536975002E+09, -1.636521005742875E+09, -7.018471902949120E+08,
2461449.500000000, A.D. 2027-Feb-13 00:00:00.0000, -5.409928155628748E+09, -1.639448426857614E+09, -7.014424150001359E+08,
2461456.500000000, A.D. 2027-Feb-20 00:00:00.0000, -5.409179285831989E+09, -1.642375465317676E+09, -7.010374568159430E+08,
2461463.500000000, A.D. 2027-Feb-27 00:00:00.0000, -5.408428927230387E+09, -1.645302115787896E+09, -7.006323157236168E+08,
2461470.500000000, A.D. 2027-Mar-06 00:00:00.0000, -5.407677081046435E+09, -1.648228373511024E+09, -7.002269916110431E+08,
2461477.500000000, A.D. 2027-Mar-13 00:00:00.0000, -5.406923749179396E+09, -1.651154234621964E+09, -6.998214843751249E+08,
2461484.500000000, A.D. 2027-Mar-20 00:00:00.0000, -5.406168933796882E+09, -1.654079695954666E+09, -6.994157939381374E+08,
2461491.500000000, A.D. 2027-Mar-27 00:00:00.0000, -5.405412637216118E+09, -1.657004754890617E+09, -6.990099202415438E+08,
2461498.500000000, A.D. 2027-Apr-03 00:00:00.0000, -5.404654861871981E+09, -1.659929409296677E+09, -6.986038632399026E+08,
2461505.500000000, A.D. 2027-Apr-10 00:00:00.0000, -5.403895610310578E+09, -1.662853657529175E+09, -6.981976228986654E+08,
2461512.500000000, A.D. 2027-Apr-17 00:00:00.0000, -5.403134885186287E+09, -1.665777498518608E+09, -6.977911991991054E+08,
2461519.500000000, A.D. 2027-Apr-24 00:00:00.0000, -5.402372689183036E+09, -1.668700931997068E+09, -6.973845921627502E+08,
2461526.500000000, A.D. 2027-May-01 00:00:00.0000, -5.401609024560226E+09, -1.671623958840619E+09, -6.969778019205360E+08,
2461533.500000000, A.D. 2027-May-08 00:00:00.0000, -5.400843892015841E+09, -1.674546580778200E+09, -6.965708287936924E+08,
2461540.500000000, A.D. 2027-May-15 00:00:00.0000, -5.400077290363669E+09, -1.677468798513648E+09, -6.961636731711516E+08,
2461547.500000000, A.D. 2027-May-22 00:00:00.0000, -5.399309218588490E+09, -1.680390610852423E+09, -6.957563352517864E+08,
2461554.500000000, A.D. 2027-May-29 00:00:00.0000, -5.398539676923270E+09, -1.683312016301297E+09, -6.953488150792226E+08,
2461561.500000000, A.D. 2027-Jun-05 00:00:00.0000, -5.397768666063566E+09, -1.686233014009263E+09, -6.949411126943290E+08,
2461568.500000000, A.D. 2027-Jun-12 00:00:00.0000, -5.396996186526642E+09, -1.689153603617862E+09, -6.945332281858754E+08,
2461575.500000000, A.D. 2027-Jun-19 00:00:00.0000, -5.396222238486336E+09, -1.692073784955945E+09, -6.941251616852610E+08,
2461582.500000000, A.D. 2027-Jun-26 00:00:00.0000, -5.395446821804232E+09, -1.694993557840174E+09, -6.937169133521175E+08,
2461589.500000000, A.D. 2027-Jul-03 00:00:00.0000, -5.394669936125053E+09, -1.697912921972987E+09, -6.933084833620135E+08,
2461596.500000000, A.D. 2027-Jul-10 00:00:00.0000, -5.393891580999390E+09, -1.700831876929274E+09, -6.928998718986843E+08,
2461603.500000000, A.D. 2027-Jul-17 00:00:00.0000, -5.393111755997440E+09, -1.703750422270641E+09, -6.924910791570518E+08,
2461610.500000000, A.D. 2027-Jul-24 00:00:00.0000, -5.392330460657331E+09, -1.706668557850081E+09, -6.920821053762670E+08,
2461617.500000000, A.D. 2027-Jul-31 00:00:00.0000, -5.391547693856584E+09, -1.709586284071502E+09, -6.916729509210279E+08,
2461624.500000000, A.D. 2027-Aug-07 00:00:00.0000, -5.390763452807457E+09, -1.712503600952422E+09, -6.912636162984738E+08,
2461631.500000000, A.D. 2027-Aug-14 00:00:00.0000, -5.389977733977266E+09, -1.715420506243115E+09, -6.908541019201829E+08,
2461638.500000000, A.D. 2027-Aug-21 00:00:00.0000, -5.389190535315495E+09, -1.718336995966406E+09, -6.904444079408786E+08,
2461645.500000000, A.D. 2027-Aug-28 00:00:00.0000, -5.388401856356593E+09, -1.721253066174889E+09, -6.900345343902236E+08,
2461652.500000000, A.D. 2027-Sep-04 00:00:00.0000, -5.387611697379645E+09, -1.724168713423268E+09, -6.896244812849965E+08,
2461659.500000000, A.D. 2027-Sep-11 00:00:00.0000, -5.386820059020212E+09, -1.727083934617119E+09, -6.892142486479261E+08,
2461666.500000000, A.D. 2027-Sep-18 00:00:00.0000, -5.386026942201143E+09, -1.729998726888149E+09, -6.888038364987705E+08,
2461673.500000000, A.D. 2027-Sep-25 00:00:00.0000, -5.385232348153529E+09, -1.732913087573351E+09, -6.883932448452470E+08,
2461680.500000000, A.D. 2027-Oct-02 00:00:00.0000, -5.384436278452701E+09, -1.735827014270163E+09, -6.879824736787000E+08,
2461687.500000000, A.D. 2027-Oct-09 00:00:00.0000, -5.383638735046781E+09, -1.738740504971723E+09, -6.875715229771998E+08,
2461694.500000000, A.D. 2027-Oct-16 00:00:00.0000, -5.382839720214499E+09, -1.741653558336700E+09, -6.871603927265670E+08,
2461701.500000000, A.D. 2027-Oct-23 00:00:00.0000, -5.382039236192282E+09, -1.744566174098975E+09, -6.867490829838192E+08,
2461708.500000000, A.D. 2027-Oct-30 00:00:00.0000, -5.381237284095766E+09, -1.747478353006512E+09, -6.863375939676638E+08,
2461715.500000000, A.D. 2027-Nov-06 00:00:00.0000, -5.380433863299044E+09, -1.750390095160993E+09, -6.859259259772432E+08,
2461722.500000000, A.D. 2027-Nov-13 00:00:00.0000, -5.379628973257014E+09, -1.753301398834178E+09, -6.855140791267760E+08,
2461729.500000000, A.D. 2027-Nov-20 00:00:00.0000, -5.378822614868914E+09, -1.756212261946736E+09, -6.851020533408945E+08,
2461736.500000000, A.D. 2027-Nov-27 00:00:00.0000, -5.378014789765441E+09, -1.759122683244925E+09, -6.846898485167382E+08,
2461743.500000000, A.D. 2027-Dec-04 00:00:00.0000, -5.377205499543000E+09, -1.762032662261135E+09, -6.842774645925002E+08,
2461750.500000000, A.D. 2027-Dec-11 00:00:00.0000, -5.376394745495625E+09, -1.764942199022172E+09, -6.838649015506418E+08,
2461757.500000000, A.D. 2027-Dec-18 00:00:00.0000, -5.375582528569632E+09, -1.767851293844292E+09, -6.834521594086407E+08,
2461764.500000000, A.D. 2027-Dec-25 00:00:00.0000, -5.374768849388983E+09, -1.770759947217043E+09, -6.830392382112964E+08,
2461771.500000000, A.D. 2028-Jan-01 00:00:00.0000, -5.373953708309959E+09, -1.773668159761225E+09, -6.826261380270921E+08,
$$EOE